STARLINK-30463          
1 57909U 23146U   25210.01764104 -.00000057  00000+0  10864-4 0  9994
2 57909  43.0033  88.4181 0000948 260.0808  99.9927 15.02532923103371
STARLINK-30453          
1 57910U 23146V   25210.34336473 -.00003147  00000+0 -21791-3 0  9990
2 57910  43.0031  86.5632 0000955 269.5802  90.4931 15.02550479103374
STARLINK-30478          
1 57911U 23146W   25209.93006909 -.00003101  00000+0 -21459-3 0  9993
2 57911  43.0046  88.6159 0001191 264.7324  95.3383 15.02537383103551
STARLINK-30477          
1 57912U 23146X   25210.00765004 -.00000056  00000+0  10925-4 0  9994
2 57912  43.0046  88.3439 0000793 261.2905  98.7847 15.02533978103316
STARLINK-30450          
1 57913U 23147A   25209.99416968  .00000540  00000+0  55037-4 0  9994
2 57913  43.0040 101.9607 0001197 266.9008  93.1698 15.02532679102853
STARLINK-30483          
1 57914U 23147B   25209.77064376  .00000278  00000+0  19619-4 0  9997
2 57914  43.0021   4.1985 0001278 270.6927  89.3778 15.27580592103983
STARLINK-30454          
1 57915U 23147C   25210.05398591  .00000370  00000+0  42452-4 0  9994
2 57915  43.0040 101.5481 0001085 272.0123  88.0595 15.02538141102863
STARLINK-30501          
1 57917U 23147E   25210.18361279 -.00000076  00000+0  94503-5 0  9992
2 57917  43.0036 100.8006 0000924 271.2840  88.7896 15.02537751103007
STARLINK-30499          
1 57918U 23147F   25210.14511175  .00000617  00000+0  31954-4 0  9991
2 57918  43.0055   2.6759 0002006 274.9757  85.0865 15.27578425104145
STARLINK-30496          
1 57919U 23147G   25210.37638780  .00000279  00000+0  35710-4 0  9997
2 57919  43.0035  99.6677 0001110 279.9833  80.0884 15.02538221103029
STARLINK-30485          
1 57920U 23147H   25209.10997853  .00000780  00000+0  72839-4 0  9997
2 57920  43.0039 106.5067 0000968 264.8448  95.2284 15.02533322102838
STARLINK-30492          
1 57921U 23147J   25209.10664775  .00000779  00000+0  72743-4 0  9994
2 57921  43.0027 106.4812 0001023 245.7016 114.3720 15.02535134102803
STARLINK-30440          
1 57923U 23147L   25209.43570955 -.00000494  00000+0 -21497-4 0  9994
2 57923  43.0022 104.6486 0000929 267.6873  92.3863 15.02534803102888
STARLINK-30487          
1 57924U 23147M   25210.41289894 -.00000026  00000+0  13146-4 0  9996
2 57924  43.0014  99.0663 0000536 275.6784  84.3997 15.02533699103048
STARLINK-30452          
1 57925U 23147N   25209.43237615  .00000167  00000+0  27422-4 0  9998
2 57925  43.0021 104.6247 0001213 265.2200  94.8504 15.02536238102859
STARLINK-30468          
1 57926U 23147P   25210.09383144 -.00000862  00000+0 -48730-4 0  9991
2 57926  43.0025 100.9903 0000803 257.8814 102.1939 15.02532943102937
STARLINK-30459          
1 57927U 23147Q   25210.07536623  .00031613  00000+0  11388-2 0  9995
2 57927  43.0031 344.8894 0001406 276.8772  83.1920 15.27998774104235
