[{"OBJECT_NAME":"STARLINK-30463","OBJECT_ID":"2023-146U","EPOCH":"2025-07-29T00:25:24.185856","MEAN_MOTION":15.02532923,"ECCENTRICITY":9.48e-5,"INCLINATION":43.0033,"RA_OF_ASC_NODE":88.4181,"ARG_OF_PERICENTER":260.0808,"MEAN_ANOMALY":99.9927,"EPHEMERIS_TYPE":0,"CLASSIFICATION_TYPE":"U","NORAD_CAT_ID":57909,"ELEMENT_SET_NO":999,"REV_AT_EPOCH":10337,"BSTAR":1.0864e-5,"MEAN_MOTION_DOT":-5.7e-7,"MEAN_MOTION_DDOT":0},{"OBJECT_NAME":"STARLINK-30453","OBJECT_ID":"2023-146V","EPOCH":"2025-07-29T08:14:26.712672","MEAN_MOTION":15.02550479,"ECCENTRICITY":9.55e-5,"INCLINATION":43.0031,"RA_OF_ASC_NODE":86.5632,"ARG_OF_PERICENTER":269.5802,"MEAN_ANOMALY":90.4931,"EPHEMERIS_TYPE":0,"CLASSIFICATION_TYPE":"U","NORAD_CAT_ID":57910,"ELEMENT_SET_NO":999,"REV_AT_EPOCH":10337,"BSTAR":-0.00021791,"MEAN_MOTION_DOT":-3.147e-5,"MEAN_MOTION_DDOT":0},{"OBJECT_NAME":"STARLINK-30478","OBJECT_ID":"2023-146W","EPOCH":"2025-07-28T22:19:17.969376","MEAN_MOTION":15.02537383,"ECCENTRICITY":0.0001191,"INCLINATION":43.0046,"RA_OF_ASC_NODE":88.6159,"ARG_OF_PERICENTER":264.7324,"MEAN_ANOMALY":95.3383,"EPHEMERIS_TYPE":0,"CLASSIFICATION_TYPE":"U","NORAD_CAT_ID":57911,"ELEMENT_SET_NO":999,"REV_AT_EPOCH":10355,"BSTAR":-0.00021459,"MEAN_MOTION_DOT":-3.101e-5,"MEAN_MOTION_DDOT":0},{"OBJECT_NAME":"STARLINK-30477","OBJECT_ID":"2023-146X","EPOCH":"2025-07-29T00:11:00.963456","MEAN_MOTION":15.02533978,"ECCENTRICITY":7.93e-5,"INCLINATION":43.0046,"RA_OF_ASC_NODE":88.3439,"ARG_OF_PERICENTER":261.2905,"MEAN_ANOMALY":98.7847,"EPHEMERIS_TYPE":0,"CLASSIFICATION_TYPE":"U","NORAD_CAT_ID":57912,"ELEMENT_SET_NO":999,"REV_AT_EPOCH":10331,"BSTAR":1.0925e-5,"MEAN_MOTION_DOT":-5.6e-7,"MEAN_MOTION_DDOT":0},{"OBJECT_NAME":"STARLINK-30450","OBJECT_ID":"2023-147A","EPOCH":"2025-07-28T23:51:36.260352","MEAN_MOTION":15.02532679,"ECCENTRICITY":0.0001197,"INCLINATION":43.004,"RA_OF_ASC_NODE":101.9607,"ARG_OF_PERICENTER":266.9008,"MEAN_ANOMALY":93.1698,"EPHEMERIS_TYPE":0,"CLASSIFICATION_TYPE":"U","NORAD_CAT_ID":57913,"ELEMENT_SET_NO":999,"REV_AT_EPOCH":10285,"BSTAR":5.5037e-5,"MEAN_MOTION_DOT":5.4e-6,"MEAN_MOTION_DDOT":0},{"OBJECT_NAME":"STARLINK-30483","OBJECT_ID":"2023-147B","EPOCH":"2025-07-28T18:29:43.620864","MEAN_MOTION":15.27580592,"ECCENTRICITY":0.0001278,"INCLINATION":43.0021,"RA_OF_ASC_NODE":4.1985,"ARG_OF_PERICENTER":270.6927,"MEAN_ANOMALY":89.3778,"EPHEMERIS_TYPE":0,"CLASSIFICATION_TYPE":"U","NORAD_CAT_ID":57914,"ELEMENT_SET_NO":999,"REV_AT_EPOCH":10398,"BSTAR":1.9619e-5,"MEAN_MOTION_DOT":2.78e-6,"MEAN_MOTION_DDOT":0},{"OBJECT_NAME":"STARLINK-30454","OBJECT_ID":"2023-147C","EPOCH":"2025-07-29T01:17:44.382624","MEAN_MOTION":15.02538141,"ECCENTRICITY":0.0001085,"INCLINATION":43.004,"RA_OF_ASC_NODE":101.5481,"ARG_OF_PERICENTER":272.0123,"MEAN_ANOMALY":88.0595,"EPHEMERIS_TYPE":0,"CLASSIFICATION_TYPE":"U","NORAD_CAT_ID":57915,"ELEMENT_SET_NO":999,"REV_AT_EPOCH":10286,"BSTAR":4.2452e-5,"MEAN_MOTION_DOT":3.7e-6,"MEAN_MOTION_DDOT":0},{"OBJECT_NAME":"STARLINK-30501","OBJECT_ID":"2023-147E","EPOCH":"2025-07-29T04:24:24.145056","MEAN_MOTION":15.02537751,"ECCENTRICITY":9.24e-5,"INCLINATION":43.0036,"RA_OF_ASC_NODE":100.8006,"ARG_OF_PERICENTER":271.284,"MEAN_ANOMALY":88.7896,"EPHEMERIS_TYPE":0,"CLASSIFICATION_TYPE":"U","NORAD_CAT_ID":57917,"ELEMENT_SET_NO":999,"REV_AT_EPOCH":10300,"BSTAR":9.4503e-6,"MEAN_MOTION_DOT":-7.6e-7,"MEAN_MOTION_DDOT":0},{"OBJECT_NAME":"STARLINK-30499","OBJECT_ID":"2023-147F","EPOCH":"2025-07-29T03:28:57.655200","MEAN_MOTION":15.27578425,"ECCENTRICITY":0.0002006,"INCLINATION":43.0055,"RA_OF_ASC_NODE":2.6759,"ARG_OF_PERICENTER":274.9757,"MEAN_ANOMALY":85.0865,"EPHEMERIS_TYPE":0,"CLASSIFICATION_TYPE":"U","NORAD_CAT_ID":57918,"ELEMENT_SET_NO":999,"REV_AT_EPOCH":10414,"BSTAR":3.1954e-5,"MEAN_MOTION_DOT":6.17e-6,"MEAN_MOTION_DDOT":0},{"OBJECT_NAME":"STARLINK-30496","OBJECT_ID":"2023-147G","EPOCH":"2025-07-29T09:01:59.905920","MEAN_MOTION":15.02538221,"ECCENTRICITY":0.000111,"INCLINATION":43.0035,"RA_OF_ASC_NODE":99.6677,"ARG_OF_PERICENTER":279.9833,"MEAN_ANOMALY":80.0884,"EPHEMERIS_TYPE":0,"CLASSIFICATION_TYPE":"U","NORAD_CAT_ID":57919,"ELEMENT_SET_NO":999,"REV_AT_EPOCH":10302,"BSTAR":3.571e-5,"MEAN_MOTION_DOT":2.79e-6,"MEAN_MOTION_DDOT":0},{"OBJECT_NAME":"STARLINK-30485","OBJECT_ID":"2023-147H","EPOCH":"2025-07-28T02:38:22.144992","MEAN_MOTION":15.02533322,"ECCENTRICITY":9.68e-5,"INCLINATION":43.0039,"RA_OF_ASC_NODE":106.5067,"ARG_OF_PERICENTER":264.8448,"MEAN_ANOMALY":95.2284,"EPHEMERIS_TYPE":0,"CLASSIFICATION_TYPE":"U","NORAD_CAT_ID":57920,"ELEMENT_SET_NO":999,"REV_AT_EPOCH":10283,"BSTAR":7.2839e-5,"MEAN_MOTION_DOT":7.8e-6,"MEAN_MOTION_DDOT":0},{"OBJECT_NAME":"STARLINK-30492","OBJECT_ID":"2023-147J","EPOCH":"2025-07-28T02:33:34.365600","MEAN_MOTION":15.02535134,"ECCENTRICITY":0.0001023,"INCLINATION":43.0027,"RA_OF_ASC_NODE":106.4812,"ARG_OF_PERICENTER":245.7016,"MEAN_ANOMALY":114.372,"EPHEMERIS_TYPE":0,"CLASSIFICATION_TYPE":"U","NORAD_CAT_ID":57921,"ELEMENT_SET_NO":999,"REV_AT_EPOCH":10280,"BSTAR":7.2743e-5,"MEAN_MOTION_DOT":7.79e-6,"MEAN_MOTION_DDOT":0},{"OBJECT_NAME":"STARLINK-30440","OBJECT_ID":"2023-147L","EPOCH":"2025-07-28T10:27:25.305120","MEAN_MOTION":15.02534803,"ECCENTRICITY":9.29e-5,"INCLINATION":43.0022,"RA_OF_ASC_NODE":104.6486,"ARG_OF_PERICENTER":267.6873,"MEAN_ANOMALY":92.3863,"EPHEMERIS_TYPE":0,"CLASSIFICATION_TYPE":"U","NORAD_CAT_ID":57923,"ELEMENT_SET_NO":999,"REV_AT_EPOCH":10288,"BSTAR":-2.1497e-5,"MEAN_MOTION_DOT":-4.94e-6,"MEAN_MOTION_DDOT":0},{"OBJECT_NAME":"STARLINK-30487","OBJECT_ID":"2023-147M","EPOCH":"2025-07-29T09:54:34.468416","MEAN_MOTION":15.02533699,"ECCENTRICITY":5.36e-5,"INCLINATION":43.0014,"RA_OF_ASC_NODE":99.0663,"ARG_OF_PERICENTER":275.6784,"MEAN_ANOMALY":84.3997,"EPHEMERIS_TYPE":0,"CLASSIFICATION_TYPE":"U","NORAD_CAT_ID":57924,"ELEMENT_SET_NO":999,"REV_AT_EPOCH":10304,"BSTAR":1.3146e-5,"MEAN_MOTION_DOT":-2.6e-7,"MEAN_MOTION_DDOT":0},{"OBJECT_NAME":"STARLINK-30452","OBJECT_ID":"2023-147N","EPOCH":"2025-07-28T10:22:37.299360","MEAN_MOTION":15.02536238,"ECCENTRICITY":0.0001213,"INCLINATION":43.0021,"RA_OF_ASC_NODE":104.6247,"ARG_OF_PERICENTER":265.22,"MEAN_ANOMALY":94.8504,"EPHEMERIS_TYPE":0,"CLASSIFICATION_TYPE":"U","NORAD_CAT_ID":57925,"ELEMENT_SET_NO":999,"REV_AT_EPOCH":10285,"BSTAR":2.7422e-5,"MEAN_MOTION_DOT":1.67e-6,"MEAN_MOTION_DDOT":0},{"OBJECT_NAME":"STARLINK-30468","OBJECT_ID":"2023-147P","EPOCH":"2025-07-29T02:15:07.036416","MEAN_MOTION":15.02532943,"ECCENTRICITY":8.03e-5,"INCLINATION":43.0025,"RA_OF_ASC_NODE":100.9903,"ARG_OF_PERICENTER":257.8814,"MEAN_ANOMALY":102.1939,"EPHEMERIS_TYPE":0,"CLASSIFICATION_TYPE":"U","NORAD_CAT_ID":57926,"ELEMENT_SET_NO":999,"REV_AT_EPOCH":10293,"BSTAR":-4.873e-5,"MEAN_MOTION_DOT":-8.62e-6,"MEAN_MOTION_DDOT":0},{"OBJECT_NAME":"STARLINK-30459","OBJECT_ID":"2023-147Q","EPOCH":"2025-07-29T01:48:31.642272","MEAN_MOTION":15.27998774,"ECCENTRICITY":0.0001406,"INCLINATION":43.0031,"RA_OF_ASC_NODE":344.8894,"ARG_OF_PERICENTER":276.8772,"MEAN_ANOMALY":83.192,"EPHEMERIS_TYPE":0,"CLASSIFICATION_TYPE":"U","NORAD_CAT_ID":57927,"ELEMENT_SET_NO":999,"REV_AT_EPOCH":10423,"BSTAR":0.0011388,"MEAN_MOTION_DOT":0.00031613,"MEAN_MOTION_DDOT":0}]
